COSMOS 2419 (714)       
1 28915U 05050A   17086.58144122  .00000024  00000-0  00000-0 0  9990
2 28915  65.4577  68.5995 0017068 345.9943 128.5335  2.13110369 87594
COSMOS 2425 (716)       
1 29670U 06062A   17086.89942153  .00000023  00000-0  10000-3 0  9990
2 29670  65.5006 307.6034 0022513 350.2548  61.5922  2.13104991 79800
COSMOS 2426 (717)       
1 29671U 06062B   17086.71441462  .00000024  00000-0  10000-3 0  9990
2 29671  65.5179 307.6962 0016140 159.0194 329.8098  2.13103013 79801
COSMOS 2424 (715)       
1 29672U 06062C   17086.76683318  .00000024  00000-0  10000-3 0  9994
2 29672  65.5014 307.6191 0015655 157.4585 187.0914  2.13102152 79792
COSMOS 2433 (720)       
1 32275U 07052A   17086.66287020  .00000023  00000-0  10000-3 0  9995
2 32275  65.4731  68.3738 0005142 283.9808 138.5755  2.13104833 73315
COSMOS 2432 (719)       
1 32276U 07052B   17086.70225958  .00000023  00000-0  10000-3 0  9993
2 32276  65.4849  68.4429 0013918 329.3655  76.4581  2.13104127 73312
COSMOS 2434 (721)       
1 32393U 07065A   17086.69544355  .00000024  00000-0  00000-0 0  9997
2 32393  65.1172 306.7980 0005112  87.1733 250.3853  2.13102893 72010
COSMOS 2436 (723)       
1 32395U 07065C   17086.71610966  .00000024  00000-0  10000-3 0  9998
2 32395  65.1268 306.8427 0016568   4.9245  36.7663  2.13104275 71950
COSMOS 2443 (725)       
1 33379U 08046B   17086.61861042  .00000022  00000-0  00000-0 0  9997
2 33379  65.4030  67.7662 0015759 188.1692 102.0589  2.13101827 66171
COSMOS 2456 (730)       
1 36111U 09070A   17086.63194351  .00000021  00000-0  00000-0 0  9995
2 36111  64.1796 186.3645 0004003 319.0502 140.5961  2.13102834 56682
COSMOS 2457 (733)       
1 36112U 09070B   17086.67600427  .00000022  00000-0  00000-0 0  9997
2 36112  64.1616 186.2835 0006491 164.0777  98.3152  2.13101559 56684
COSMOS 2458 (734)       
1 36113U 09070C   17086.77144303  .00000022  00000-0  10000-3 0  9999
2 36113  64.1666 186.2886 0001558  26.3372 357.1241  2.13102098 56691
COSMOS 2459 (731)       
1 36400U 10007A   17086.62516137  .00000021  00000-0  10000-3 0  9991
2 36400  65.3822  67.4920 0029514 348.2831 268.1024  2.13102317 55035
COSMOS 2461 (735)       
1 36401U 10007B   17086.55129809  .00000022  00000-0  10000-3 0  9991
2 36401  65.3743  67.4720 0005264  42.1110  68.2006  2.13102325 55030
COSMOS 2460 (732)       
1 36402U 10007C   17086.87018943  .00000020  00000-0  10000-3 0  9991
2 36402  65.3655  67.4350 0002885 307.6728  88.7215  2.13101830 55042
COSMOS 2465 (737)       
1 37138U 10041B   17086.84956513  .00000022  00000-0  00000-0 0  9995
2 37138  64.7141 306.8225 0034111 169.6313 330.2126  2.13104546 51113
COSMOS 2464 (736)       
1 37139U 10041C   17086.42288020  .00000024  00000-0  00000-0 0  9993
2 37139  64.7228 306.8352 0024840  14.6007 341.5961  2.13102659 51090
COSMOS 2471 (701K)      
1 37372U 11009A   17086.70695274  .00000021  00000-0  00000-0 0  9998
2 37372  65.3624  67.3894 0008992 246.3699 159.2165  2.13107766 47311
COSMOS 2474 (742)       
1 37829U 11055A   17086.54509895  .00000021  00000-0  00000-0 0  9991
2 37829  64.5034 186.8984 0007827 248.2982   4.8751  2.13101897 42672
COSMOS 2476 (744)       
1 37867U 11064A   17086.58354999  .00000021  00000-0  00000-0 0  9990
2 37867  64.4836 186.9705 0017008 243.3116  85.2765  2.13101981 42023
COSMOS 2477 (745)       
1 37868U 11064B   17086.51167698  .00000020  00000-0  00000-0 0  9991
2 37868  64.4918 187.0172 0014885 244.7567 207.8671  2.13101783 41982
COSMOS 2475 (743)       
1 37869U 11064C   17086.57750676  .00000021  00000-0  00000-0 0  9993
2 37869  64.4999 187.0043 0019798 272.2747 187.2009  2.13101866 41992
COSMOS 2485 (747)       
1 39155U 13019A   17086.67286214  .00000022  00000-0  00000-0 0  9999
2 39155  64.6530 186.9795 0017358 237.7928 204.3674  2.13101969 30502
COSMOS 2492 (754)       
1 39620U 14012A   17086.69827060  .00000020  00000-0  10000-3 0  9994
2 39620  65.2548  67.3897 0017534 327.1202 168.5065  2.13103489 23455
COSMOS 2500 (755)       
1 40001U 14032A   17086.70994297  .00000020  00000-0  00000-0 0  9996
2 40001  65.1954  67.3921 0006340 233.4227 134.3494  2.13102880 21670
COSMOS 2501 (702K)      
1 40315U 14075A   17086.71287550  .00000020  00000-0  00000-0 0  9999
2 40315  64.4504 308.1961 0013412 208.3197 328.8494  2.13098542 18075
COSMOS 2514 (751)       
1 41330U 16008A   17086.62018382  .00000021  00000-0  00000-0 0  9991
2 41330  64.9953  67.5596 0009813 233.1904 245.5076  2.13103450  8837
COSMOS 2516 (753)       
1 41554U 16032A   17086.70506564  .00000021  00000-0  00000-0 0  9999
2 41554  64.6668 307.9380 0009466 223.3937 213.4694  2.13101611  6440
